CTC1_L_00024001-01
1 85479U 22705NO  26037.47800926  .00000000  00000+0  00000-0 0  9992
2 85479  95.0000   0.0000 0000000   0.0000   0.0000 15.80155563    19
CTC1_L_00024001-02
1 85480U 23761AC  26037.47800926  .00000000  00000+0  00000-0 0  9997
2 85480  95.0000   0.0000 0000000   0.0000  90.0000 15.80155563    10
CTC1_L_00024001-03
1 85481U 25262OD  26037.47800926  .00000000  00000+0  00000-0 0  9996
2 85481  95.0000   0.0000 0000000   0.0000 180.0000 15.80155563    11
CTC1_L_00024001-04
1 85482U 26964AW  26037.47800926  .00000000  00000+0  00000-0 0  9997
2 85482  95.0000   0.0000 0000000   0.0000 270.0000 15.80155563    12
CTC1_L_00024002-01
1 85483U 26632TK  26037.47800926  .00000000  00000+0  00000-0 0  9990
2 85483  95.0000  12.0000 0000000   0.0000  12.0000 15.80155563    10
CTC1_L_00024002-02
1 85484U 24620OE  26037.47800926  .00000000  00000+0  00000-0 0  9996
2 85484  95.0000  12.0000 0000000   0.0000 102.0000 15.80155563    11
CTC1_L_00024002-03
1 85485U 24535GR  26037.47800926  .00000000  00000+0  00000-0 0  9992
2 85485  95.0000  12.0000 0000000   0.0000 192.0000 15.80155563    11
CTC1_L_00024002-04
1 85486U 22587SX  26037.47800926  .00000000  00000+0  00000-0 0  9998
2 85486  95.0000  12.0000 0000000   0.0000 282.0000 15.80155563    12
CTC1_L_00024003-01
1 85487U 26439BQ  26037.47800926  .00000000  00000+0  00000-0 0  9999
2 85487  95.0000  24.0000 0000000   0.0000  24.0000 15.80155563    10
CTC1_L_00024003-02
1 85488U 23996P   26037.47800926  .00000000  00000+0  00000-0 0  9995
2 85488  95.0000  24.0000 0000000   0.0000 114.0000 15.80155563    11
CTC1_L_00024003-03
1 85489U 22753QL  26037.47800926  .00000000  00000+0  00000-0 0  9996
2 85489  95.0000  24.0000 0000000   0.0000 204.0000 15.80155563    12
CTC1_L_00024003-04
1 85490U 24447PF  26037.47800926  .00000000  00000+0  00000-0 0  9990
2 85490  95.0000  24.0000 0000000   0.0000 294.0000 15.80155563    13
CTC1_L_00024004-01
1 85491U 26038EX  26037.47800926  .00000000  00000+0  00000-0 0  9999
2 85491  95.0000  36.0000 0000000   0.0000  36.0000 15.80155563    11
CTC1_L_00024004-02
1 85492U 22993F   26037.47800926  .00000000  00000+0  00000-0 0  9996
2 85492  95.0000  36.0000 0000000   0.0000 126.0000 15.80155563    12
CTC1_L_00024004-03
1 85493U 25265OS  26037.47800926  .00000000  00000+0  00000-0 0  9992
2 85493  95.0000  36.0000 0000000   0.0000 216.0000 15.80155563    13
CTC1_L_00024004-04
1 85494U 22730FA  26037.47800926  .00000000  00000+0  00000-0 0  9997
2 85494  95.0000  36.0000 0000000   0.0000 306.0000 15.80155563    14
CTC1_L_00024005-01
1 85495U 25418VR  26037.47800926  .00000000  00000+0  00000-0 0  9994
2 85495  95.0000  48.0000 0000000   0.0000  48.0000 15.80155563    11
CTC1_L_00024005-02
1 85496U 26471SR  26037.47800926  .00000000  00000+0  00000-0 0  9995
2 85496  95.0000  48.0000 0000000   0.0000 138.0000 15.80155563    12
CTC1_L_00024005-03
1 85497U 24872FJ  26037.47800926  .00000000  00000+0  00000-0 0  9999
2 85497  95.0000  48.0000 0000000   0.0000 228.0000 15.80155563    13
CTC1_L_00024005-04
1 85498U 24979EX  26037.47800926  .00000000  00000+0  00000-0 0  9998
2 85498  95.0000  48.0000 0000000   0.0000 318.0000 15.80155563    14
CTC1_L_00024006-01
1 85499U 23980OL  26037.47800926  .00000000  00000+0  00000-0 0  9990
2 85499  95.0000  60.0000 0000000   0.0000  60.0000 15.80155563    13
CTC1_L_00024006-02
1 85500U 23338ZT  26037.47800926  .00000000  00000+0  00000-0 0  9990
2 85500  95.0000  60.0000 0000000   0.0000 150.0000 15.80155563    16
CTC1_L_00024006-03
1 85501U 26721XE  26037.47800926  .00000000  00000+0  00000-0 0  9990
2 85501  95.0000  60.0000 0000000   0.0000 240.0000 15.80155563    17
CTC1_L_00024006-04
1 85502U 22537IN  26037.47800926  .00000000  00000+0  00000-0 0  9992
2 85502  95.0000  60.0000 0000000   0.0000 330.0000 15.80155563    18
CTC1_L_00024007-01
1 85503U 26102WA  26037.47800926  .00000000  00000+0  00000-0 0  9995
2 85503  95.0000  72.0000 0000000   0.0000  72.0000 15.80155563    15
CTC1_L_00024007-02
1 85504U 24558JX  26037.47800926  .00000000  00000+0  00000-0 0  9999
2 85504  95.0000  72.0000 0000000   0.0000 162.0000 15.80155563    16
CTC1_L_00024007-03
1 85505U 26387ZV  26037.47800926  .00000000  00000+0  00000-0 0  9992
2 85505  95.0000  72.0000 0000000   0.0000 252.0000 15.80155563    17
CTC1_L_00024007-04
1 85506U 24774JT  26037.47800926  .00000000  00000+0  00000-0 0  9991
2 85506  95.0000  72.0000 0000000   0.0000 342.0000 15.80155563    18
CTC1_L_00024008-01
1 85507U 25861ZY  26037.47800926  .00000000  00000+0  00000-0 0  9990
2 85507  95.0000  84.0000 0000000   0.0000  84.0000 15.80155563    15
CTC1_L_00024008-02
1 85508U 24131JK  26037.47800926  .00000000  00000+0  00000-0 0  9990
2 85508  95.0000  84.0000 0000000   0.0000 174.0000 15.80155563    16
CTC1_L_00024008-03
1 85509U 26554DI  26037.47800926  .00000000  00000+0  00000-0 0  9992
2 85509  95.0000  84.0000 0000000   0.0000 264.0000 15.80155563    17
CTC1_L_00024008-04
1 85510U 26790AL  26037.47800926  .00000000  00000+0  00000-0 0  9996
2 85510  95.0000  84.0000 0000000   0.0000 354.0000 15.80155563    19
CTC1_L_00024009-01
1 85511U 25577AR  26037.47800926  .00000000  00000+0  00000-0 0  9999
2 85511  95.0000  96.0000 0000000   0.0000  96.0000 15.80155563    16
CTC1_L_00024009-02
1 85512U 25201GI  26037.47800926  .00000000  00000+0  00000-0 0  9994
2 85512  95.0000  96.0000 0000000   0.0000 186.0000 15.80155563    17
CTC1_L_00024009-03
1 85513U 23308BC  26037.47800926  .00000000  00000+0  00000-0 0  9991
2 85513  95.0000  96.0000 0000000   0.0000 276.0000 15.80155563    18
CTC1_L_00024009-04
1 85514U 24621KA  26037.47800926  .00000000  00000+0  00000-0 0  9991
2 85514  95.0000  96.0000 0000000   0.0000   6.0000 15.80155563    10
CTC1_L_00024010-01
1 85515U 25227HA  26037.47800926  .00000000  00000+0  00000-0 0  9995
2 85515  95.0000 108.0000 0000000   0.0000 108.0000 15.80155563    18
CTC1_L_00024010-02
1 85516U 25177LA  26037.47800926  .00000000  00000+0  00000-0 0  9990
2 85516  95.0000 108.0000 0000000   0.0000 198.0000 15.80155563    18
CTC1_L_00024010-03
1 85517U 26142GZ  26037.47800926  .00000000  00000+0  00000-0 0  9994
2 85517  95.0000 108.0000 0000000   0.0000 288.0000 15.80155563    19
CTC1_L_00024010-04
1 85518U 26019KS  26037.47800926  .00000000  00000+0  00000-0 0  9998
2 85518  95.0000 108.0000 0000000   0.0000  18.0000 15.80155563    11
CTC1_L_00024011-01
1 85519U 24720KA  26037.47800926  .00000000  00000+0  00000-0 0  9996
2 85519  95.0000 120.0000 0000000   0.0000 120.0000 15.80155563    10
CTC1_L_00024011-02
1 85520U 25340IT  26037.47800926  .00000000  00000+0  00000-0 0  9997
2 85520  95.0000 120.0000 0000000   0.0000 210.0000 15.80155563    12
CTC1_L_00024011-03
1 85521U 23828FJ  26037.47800926  .00000000  00000+0  00000-0 0  9997
2 85521  95.0000 120.0000 0000000   0.0000 300.0000 15.80155563    13
CTC1_L_00024011-04
1 85522U 26777YS  26037.47800926  .00000000  00000+0  00000-0 0  9994
2 85522  95.0000 120.0000 0000000   0.0000  30.0000 15.80155563    14
CTC1_L_00024012-01
1 85523U 25460SX  26037.47800926  .00000000  00000+0  00000-0 0  9993
2 85523  95.0000 132.0000 0000000   0.0000 132.0000 15.80155563    11
CTC1_L_00024012-02
1 85524U 23631WW  26037.47800926  .00000000  00000+0  00000-0 0  9992
2 85524  95.0000 132.0000 0000000   0.0000 222.0000 15.80155563    12
CTC1_L_00024012-03
1 85525U 23884QV  26037.47800926  .00000000  00000+0  00000-0 0  9993
2 85525  95.0000 132.0000 0000000   0.0000 312.0000 15.80155563    13
CTC1_L_00024012-04
1 85526U 26751AF  26037.47800926  .00000000  00000+0  00000-0 0  9990
2 85526  95.0000 132.0000 0000000   0.0000  42.0000 15.80155563    14
CTC1_L_00024013-01
1 85527U 24442WY  26037.47800926  .00000000  00000+0  00000-0 0  9996
2 85527  95.0000 144.0000 0000000   0.0000 144.0000 15.80155563    11
CTC1_L_00024013-02
1 85528U 22281SH  26037.47800926  .00000000  00000+0  00000-0 0  9996
2 85528  95.0000 144.0000 0000000   0.0000 234.0000 15.80155563    12
CTC1_L_00024013-03
1 85529U 22941QS  26037.47800926  .00000000  00000+0  00000-0 0  9990
2 85529  95.0000 144.0000 0000000   0.0000 324.0000 15.80155563    13
CTC1_L_00024013-04
1 85530U 24323FN  26037.47800926  .00000000  00000+0  00000-0 0  9998
2 85530  95.0000 144.0000 0000000   0.0000  54.0000 15.80155563    15
CTC1_L_00024014-01
1 85531U 25365FN  26037.47800926  .00000000  00000+0  00000-0 0  9996
2 85531  95.0000 156.0000 0000000   0.0000 156.0000 15.80155563    12
CTC1_L_00024014-02
1 85532U 26200NC  26037.47800926  .00000000  00000+0  00000-0 0  9996
2 85532  95.0000 156.0000 0000000   0.0000 246.0000 15.80155563    13
CTC1_L_00024014-03
1 85533U 26041GJ  26037.47800926  .00000000  00000+0  00000-0 0  9990
2 85533  95.0000 156.0000 0000000   0.0000 336.0000 15.80155563    14
CTC1_L_00024014-04
1 85534U 25894VS  26037.47800926  .00000000  00000+0  00000-0 0  9996
2 85534  95.0000 156.0000 0000000   0.0000  66.0000 15.80155563    15
CTC1_L_00024015-01
1 85535U 26009IG  26037.47800926  .00000000  00000+0  00000-0 0  9996
2 85535  95.0000 168.0000 0000000   0.0000 168.0000 15.80155563    12
CTC1_L_00024015-02
1 85536U 24989P   26037.47800926  .00000000  00000+0  00000-0 0  9992
2 85536  95.0000 168.0000 0000000   0.0000 258.0000 15.80155563    13
CTC1_L_00024015-03
1 85537U 26433CE  26037.47800926  .00000000  00000+0  00000-0 0  9999
2 85537  95.0000 168.0000 0000000   0.0000 348.0000 15.80155563    14
CTC1_L_00024015-04
1 85538U 25843IG  26037.47800926  .00000000  00000+0  00000-0 0  9994
2 85538  95.0000 168.0000 0000000   0.0000  78.0000 15.80155563    15
CTC1_L_00024016-01
1 85539U 23050JR  26037.47800926  .00000000  00000+0  00000-0 0  9993
2 85539  95.0000 180.0000 0000000   0.0000 180.0000 15.80155563    14
CTC1_L_00024016-02
1 85540U 26970WT  26037.47800926  .00000000  00000+0  00000-0 0  9999
2 85540  95.0000 180.0000 0000000   0.0000 270.0000 15.80155563    16
